GLOBALSTAR M024         
1 25883U 99043A   24341.58916737  .00000011  00000+0  26869-2 0  9995
2 25883  52.0008  95.1871 0002464 130.6220 242.6278 11.10161493 93475
GLOBALSTAR M027         
1 25884U 99043B   24341.79500286 -.00000052  00000+0  42547-3 0  9995
2 25884  52.0166 167.2569 0022063  43.2774 316.9748 11.04371550120025
GLOBALSTAR M054         
1 25885U 99043C   24341.47094087 -.00000019  00000+0  13245-2 0  9993
2 25885  52.0160 327.6202 0005922 208.6612 323.8528 11.39206993 97414
GLOBALSTAR M053         
1 25886U 99043D   24341.56968332 -.00000038  00000+0  89154-3 0  9991
2 25886  51.9986 263.7914 0003870 101.3880  69.7626 11.27660841 97716
GLOBALSTAR M058         
1 25907U 99049A   24341.46880488 -.00000123  00000+0 -52383-3 0  9995
2 25907  51.9946 263.7816 0001147 286.8407  73.2301 11.93192491129749
GLOBALSTAR M050         
1 25908U 99049B   24341.60779572  .00000056  00000+0  16320-2 0  9996
2 25908  51.9999 285.4734 0009669  10.5264 160.0411 12.07445184124926
GLOBALSTAR M033         
1 25909U 99049C   24341.78063982 -.00000121  00000+0 -28293-3 0  9995
2 25909  51.9875 170.1210 0011839 223.0357 136.9565 12.20292460144976
GLOBALSTAR M055         
1 25910U 99049D   24341.57397434 -.00000070  00000+0  20884-3 0  9996
2 25910  51.9986 190.8267 0008264  90.5174 269.6624 12.29416395144596
